[{"OBJECT_NAME":"FENGYUN 1C DEB","OBJECT_ID":"1999-025AYD","EPOCH":"2026-04-25T09:01:28.179840","MEAN_MOTION":14.06182914,"ECCENTRICITY":0.0055442,"INCLINATION":98.7617,"RA_OF_ASC_NODE":163.8513,"ARG_OF_PERICENTER":172.0373,"MEAN_ANOMALY":252.2153,"EPHEMERIS_TYPE":0,"CLASSIFICATION_TYPE":"U","NORAD_CAT_ID":30891,"ELEMENT_SET_NO":999,"REV_AT_EPOCH":97860,"BSTAR":0.00049829,"MEAN_MOTION_DOT":7.89e-6,"MEAN_MOTION_DDOT":0},{"OBJECT_NAME":"FENGYUN 1C DEB","OBJECT_ID":"1999-025AYE","EPOCH":"2026-04-20T15:05:13.565472","MEAN_MOTION":14.19175616,"ECCENTRICITY":0.0037769,"INCLINATION":99.6806,"RA_OF_ASC_NODE":70.4445,"ARG_OF_PERICENTER":188.9136,"MEAN_ANOMALY":171.1371,"EPHEMERIS_TYPE":0,"CLASSIFICATION_TYPE":"U","NORAD_CAT_ID":30892,"ELEMENT_SET_NO":999,"REV_AT_EPOCH":66131,"BSTAR":0.00023238466,"MEAN_MOTION_DOT":4.38e-6,"MEAN_MOTION_DDOT":0},{"OBJECT_NAME":"FENGYUN 1C DEB","OBJECT_ID":"1999-025AYF","EPOCH":"2026-04-25T19:25:18.488064","MEAN_MOTION":13.94483989,"ECCENTRICITY":0.0309094,"INCLINATION":98.2444,"RA_OF_ASC_NODE":133.9726,"ARG_OF_PERICENTER":77.2831,"MEAN_ANOMALY":99.9378,"EPHEMERIS_TYPE":0,"CLASSIFICATION_TYPE":"U","NORAD_CAT_ID":30893,"ELEMENT_SET_NO":999,"REV_AT_EPOCH":96753,"BSTAR":0.00076809,"MEAN_MOTION_DOT":1.489e-5,"MEAN_MOTION_DDOT":0},{"OBJECT_NAME":"FENGYUN 1C DEB","OBJECT_ID":"1999-025AYH","EPOCH":"2026-04-25T17:48:38.394720","MEAN_MOTION":14.31878084,"ECCENTRICITY":0.021741,"INCLINATION":98.6978,"RA_OF_ASC_NODE":189.7758,"ARG_OF_PERICENTER":90.3731,"MEAN_ANOMALY":35.4333,"EPHEMERIS_TYPE":0,"CLASSIFICATION_TYPE":"U","NORAD_CAT_ID":30895,"ELEMENT_SET_NO":999,"REV_AT_EPOCH":99710,"BSTAR":0.00026355,"MEAN_MOTION_DOT":8.66e-6,"MEAN_MOTION_DDOT":0},{"OBJECT_NAME":"FENGYUN 1C DEB","OBJECT_ID":"1999-025AYM","EPOCH":"2026-04-25T13:41:40.379136","MEAN_MOTION":14.34513101,"ECCENTRICITY":0.0029051,"INCLINATION":99.1722,"RA_OF_ASC_NODE":26.1987,"ARG_OF_PERICENTER":261.9362,"MEAN_ANOMALY":220.4632,"EPHEMERIS_TYPE":0,"CLASSIFICATION_TYPE":"U","NORAD_CAT_ID":30899,"ELEMENT_SET_NO":999,"REV_AT_EPOCH":98573,"BSTAR":0.00096124,"MEAN_MOTION_DOT":2.675e-5,"MEAN_MOTION_DDOT":0},{"OBJECT_NAME":"FENGYUN 1C DEB","OBJECT_ID":"1999-025AYR","EPOCH":"2026-04-20T10:08:50.492832","MEAN_MOTION":13.97666365,"ECCENTRICITY":0.00969659,"INCLINATION":99.3574,"RA_OF_ASC_NODE":3.5444,"ARG_OF_PERICENTER":102.8726,"MEAN_ANOMALY":258.3289,"EPHEMERIS_TYPE":0,"CLASSIFICATION_TYPE":"U","NORAD_CAT_ID":30903,"ELEMENT_SET_NO":999,"REV_AT_EPOCH":70502,"BSTAR":0.00030233779,"MEAN_MOTION_DOT":3.98e-6,"MEAN_MOTION_DDOT":0},{"OBJECT_NAME":"FENGYUN 1C DEB","OBJECT_ID":"1999-025AYT","EPOCH":"2026-04-25T11:09:36.075168","MEAN_MOTION":14.18743917,"ECCENTRICITY":0.0055093,"INCLINATION":98.8773,"RA_OF_ASC_NODE":195.9862,"ARG_OF_PERICENTER":63.9862,"MEAN_ANOMALY":296.6973,"EPHEMERIS_TYPE":0,"CLASSIFICATION_TYPE":"U","NORAD_CAT_ID":30905,"ELEMENT_SET_NO":999,"REV_AT_EPOCH":98018,"BSTAR":0.0013622,"MEAN_MOTION_DOT":2.828e-5,"MEAN_MOTION_DDOT":0},{"OBJECT_NAME":"FENGYUN 1C DEB","OBJECT_ID":"1999-025AYV","EPOCH":"2026-04-25T07:50:19.637088","MEAN_MOTION":14.15562802,"ECCENTRICITY":0.0057905,"INCLINATION":99.9361,"RA_OF_ASC_NODE":155.6393,"ARG_OF_PERICENTER":130.808,"MEAN_ANOMALY":229.8133,"EPHEMERIS_TYPE":0,"CLASSIFICATION_TYPE":"U","NORAD_CAT_ID":30907,"ELEMENT_SET_NO":999,"REV_AT_EPOCH":3439,"BSTAR":0.00069331,"MEAN_MOTION_DOT":1.325e-5,"MEAN_MOTION_DDOT":0},{"OBJECT_NAME":"FENGYUN 1C DEB","OBJECT_ID":"1999-025AZA","EPOCH":"2026-04-25T02:07:19.495776","MEAN_MOTION":14.93540019,"ECCENTRICITY":0.00547252,"INCLINATION":98.9869,"RA_OF_ASC_NODE":339.9802,"ARG_OF_PERICENTER":32.5877,"MEAN_ANOMALY":327.8697,"EPHEMERIS_TYPE":0,"CLASSIFICATION_TYPE":"U","NORAD_CAT_ID":30912,"ELEMENT_SET_NO":999,"REV_AT_EPOCH":1389,"BSTAR":0.00094941867,"MEAN_MOTION_DOT":0.00010237,"MEAN_MOTION_DDOT":0},{"OBJECT_NAME":"FENGYUN 1C DEB","OBJECT_ID":"1999-025AZB","EPOCH":"2026-04-24T08:30:30.953952","MEAN_MOTION":14.05225559,"ECCENTRICITY":0.00489619,"INCLINATION":98.7304,"RA_OF_ASC_NODE":141.4761,"ARG_OF_PERICENTER":167.9764,"MEAN_ANOMALY":192.2585,"EPHEMERIS_TYPE":0,"CLASSIFICATION_TYPE":"U","NORAD_CAT_ID":30913,"ELEMENT_SET_NO":999,"REV_AT_EPOCH":97780,"BSTAR":0.00063219714,"MEAN_MOTION_DOT":9.91e-6,"MEAN_MOTION_DDOT":0},{"OBJECT_NAME":"FENGYUN 1C DEB","OBJECT_ID":"1999-025AZC","EPOCH":"2026-04-23T11:28:29.412480","MEAN_MOTION":13.09280432,"ECCENTRICITY":0.05107599,"INCLINATION":99.9841,"RA_OF_ASC_NODE":354.1186,"ARG_OF_PERICENTER":51.8937,"MEAN_ANOMALY":312.7102,"EPHEMERIS_TYPE":0,"CLASSIFICATION_TYPE":"U","NORAD_CAT_ID":30914,"ELEMENT_SET_NO":999,"REV_AT_EPOCH":60799,"BSTAR":0.0023459817,"MEAN_MOTION_DOT":1.495e-5,"MEAN_MOTION_DDOT":0},{"OBJECT_NAME":"FENGYUN 1C DEB","OBJECT_ID":"1999-025AZD","EPOCH":"2026-04-25T16:26:29.521824","MEAN_MOTION":14.26111521,"ECCENTRICITY":0.0053611,"INCLINATION":98.931,"RA_OF_ASC_NODE":199.418,"ARG_OF_PERICENTER":139.7721,"MEAN_ANOMALY":220.7445,"EPHEMERIS_TYPE":0,"CLASSIFICATION_TYPE":"U","NORAD_CAT_ID":30915,"ELEMENT_SET_NO":999,"REV_AT_EPOCH":98421,"BSTAR":0.0012235,"MEAN_MOTION_DOT":2.926e-5,"MEAN_MOTION_DDOT":0},{"OBJECT_NAME":"FENGYUN 1C DEB","OBJECT_ID":"1999-025AZE","EPOCH":"2026-04-24T10:00:27.281088","MEAN_MOTION":14.09330895,"ECCENTRICITY":0.00627875,"INCLINATION":98.9817,"RA_OF_ASC_NODE":179.4921,"ARG_OF_PERICENTER":246.3179,"MEAN_ANOMALY":177.3194,"EPHEMERIS_TYPE":0,"CLASSIFICATION_TYPE":"U","NORAD_CAT_ID":30916,"ELEMENT_SET_NO":999,"REV_AT_EPOCH":97712,"BSTAR":0.00077740325,"MEAN_MOTION_DOT":1.334e-5,"MEAN_MOTION_DDOT":0},{"OBJECT_NAME":"FENGYUN 1C DEB","OBJECT_ID":"1999-025AZG","EPOCH":"2026-04-25T20:15:48.553344","MEAN_MOTION":13.97276069,"ECCENTRICITY":0.0158067,"INCLINATION":98.4183,"RA_OF_ASC_NODE":221.8303,"ARG_OF_PERICENTER":109.9593,"MEAN_ANOMALY":19.3549,"EPHEMERIS_TYPE":0,"CLASSIFICATION_TYPE":"U","NORAD_CAT_ID":30918,"ELEMENT_SET_NO":999,"REV_AT_EPOCH":96925,"BSTAR":0.00072519,"MEAN_MOTION_DOT":1.092e-5,"MEAN_MOTION_DDOT":0},{"OBJECT_NAME":"FENGYUN 1C DEB","OBJECT_ID":"1999-025AZJ","EPOCH":"2026-04-25T09:08:14.872416","MEAN_MOTION":14.1850523,"ECCENTRICITY":0.0109008,"INCLINATION":98.9169,"RA_OF_ASC_NODE":262.1752,"ARG_OF_PERICENTER":78.5181,"MEAN_ANOMALY":282.8212,"EPHEMERIS_TYPE":0,"CLASSIFICATION_TYPE":"U","NORAD_CAT_ID":30920,"ELEMENT_SET_NO":999,"REV_AT_EPOCH":96987,"BSTAR":0.0023388,"MEAN_MOTION_DOT":5.088e-5,"MEAN_MOTION_DDOT":0},{"OBJECT_NAME":"FENGYUN 1C DEB","OBJECT_ID":"1999-025AZK","EPOCH":"2026-04-25T19:53:21.725088","MEAN_MOTION":14.34099413,"ECCENTRICITY":0.0015785,"INCLINATION":98.8354,"RA_OF_ASC_NODE":211.1167,"ARG_OF_PERICENTER":7.5252,"MEAN_ANOMALY":115.0514,"EPHEMERIS_TYPE":0,"CLASSIFICATION_TYPE":"U","NORAD_CAT_ID":30921,"ELEMENT_SET_NO":999,"REV_AT_EPOCH":98745,"BSTAR":0.0014616,"MEAN_MOTION_DOT":4.05e-5,"MEAN_MOTION_DDOT":0},{"OBJECT_NAME":"FENGYUN 1C DEB","OBJECT_ID":"1999-025AZL","EPOCH":"2026-04-25T06:35:56.169888","MEAN_MOTION":14.1783008,"ECCENTRICITY":0.0014336,"INCLINATION":98.6326,"RA_OF_ASC_NODE":132.43,"ARG_OF_PERICENTER":32.474,"MEAN_ANOMALY":27.8941,"EPHEMERIS_TYPE":0,"CLASSIFICATION_TYPE":"U","NORAD_CAT_ID":30922,"ELEMENT_SET_NO":999,"REV_AT_EPOCH":98456,"BSTAR":0.00049554,"MEAN_MOTION_DOT":9.7e-6,"MEAN_MOTION_DDOT":0},{"OBJECT_NAME":"FENGYUN 1C DEB","OBJECT_ID":"1999-025AZP","EPOCH":"2026-04-24T20:53:44.977344","MEAN_MOTION":14.45547229,"ECCENTRICITY":0.00329021,"INCLINATION":98.8881,"RA_OF_ASC_NODE":257.5957,"ARG_OF_PERICENTER":196.4968,"MEAN_ANOMALY":316.1407,"EPHEMERIS_TYPE":0,"CLASSIFICATION_TYPE":"U","NORAD_CAT_ID":30925,"ELEMENT_SET_NO":999,"REV_AT_EPOCH":98994,"BSTAR":0.0015968502,"MEAN_MOTION_DOT":5.628e-5,"MEAN_MOTION_DDOT":0},{"OBJECT_NAME":"FENGYUN 1C DEB","OBJECT_ID":"1999-025AZQ","EPOCH":"2026-04-25T19:53:35.986272","MEAN_MOTION":14.91054214,"ECCENTRICITY":0.0159615,"INCLINATION":98.8196,"RA_OF_ASC_NODE":76.9507,"ARG_OF_PERICENTER":310.3532,"MEAN_ANOMALY":48.3835,"EPHEMERIS_TYPE":0,"CLASSIFICATION_TYPE":"U","NORAD_CAT_ID":30926,"ELEMENT_SET_NO":999,"REV_AT_EPOCH":2764,"BSTAR":0.00043892,"MEAN_MOTION_DOT":5.464e-5,"MEAN_MOTION_DDOT":0},{"OBJECT_NAME":"FENGYUN 1C DEB","OBJECT_ID":"1999-025AZR","EPOCH":"2026-04-21T02:58:00.471648","MEAN_MOTION":14.0976,"ECCENTRICITY":0.00958883,"INCLINATION":99.17,"RA_OF_ASC_NODE":179.0347,"ARG_OF_PERICENTER":5.9403,"MEAN_ANOMALY":354.288,"EPHEMERIS_TYPE":0,"CLASSIFICATION_TYPE":"U","NORAD_CAT_ID":30927,"ELEMENT_SET_NO":999,"REV_AT_EPOCH":97506,"BSTAR":0.0009737734,"MEAN_MOTION_DOT":1.738e-5,"MEAN_MOTION_DDOT":0},{"OBJECT_NAME":"FENGYUN 1C DEB","OBJECT_ID":"1999-025AZS","EPOCH":"2026-04-25T17:20:15.137088","MEAN_MOTION":13.22516848,"ECCENTRICITY":0.0453027,"INCLINATION":98.8712,"RA_OF_ASC_NODE":190.3493,"ARG_OF_PERICENTER":65.6384,"MEAN_ANOMALY":56.8263,"EPHEMERIS_TYPE":0,"CLASSIFICATION_TYPE":"U","NORAD_CAT_ID":30928,"ELEMENT_SET_NO":999,"REV_AT_EPOCH":92119,"BSTAR":0.00028341,"MEAN_MOTION_DOT":1.72e-6,"MEAN_MOTION_DDOT":0},{"OBJECT_NAME":"FENGYUN 1C DEB","OBJECT_ID":"1999-025AZU","EPOCH":"2026-04-25T13:16:49.800288","MEAN_MOTION":14.37740063,"ECCENTRICITY":0.0109252,"INCLINATION":98.1993,"RA_OF_ASC_NODE":142.8467,"ARG_OF_PERICENTER":64.4175,"MEAN_ANOMALY":86.3013,"EPHEMERIS_TYPE":0,"CLASSIFICATION_TYPE":"U","NORAD_CAT_ID":30930,"ELEMENT_SET_NO":999,"REV_AT_EPOCH":245,"BSTAR":0.00030845,"MEAN_MOTION_DOT":9.52e-6,"MEAN_MOTION_DDOT":0},{"OBJECT_NAME":"FENGYUN 1C DEB","OBJECT_ID":"1999-025AZV","EPOCH":"2026-04-25T15:43:41.999808","MEAN_MOTION":14.01798643,"ECCENTRICITY":0.0093145,"INCLINATION":99.1507,"RA_OF_ASC_NODE":178.7622,"ARG_OF_PERICENTER":31.8009,"MEAN_ANOMALY":119.5288,"EPHEMERIS_TYPE":0,"CLASSIFICATION_TYPE":"U","NORAD_CAT_ID":30931,"ELEMENT_SET_NO":999,"REV_AT_EPOCH":97801,"BSTAR":0.00036867,"MEAN_MOTION_DOT":5.37e-6,"MEAN_MOTION_DDOT":0}]
